[{"OBJECT_NAME":"HST","OBJECT_ID":"1990-037B","EPOCH":"2026-03-09T03:50:04.164288","MEAN_MOTION":15.29473555,"ECCENTRICITY":0.00018372,"INCLINATION":28.4717,"RA_OF_ASC_NODE":43.6133,"ARG_OF_PERICENTER":120.9992,"MEAN_ANOMALY":239.0785,"EPHEMERIS_TYPE":0,"CLASSIFICATION_TYPE":"U","NORAD_CAT_ID":20580,"ELEMENT_SET_NO":999,"REV_AT_EPOCH":77323,"BSTAR":0.0003002261,"MEAN_MOTION_DOT":9.063e-5,"MEAN_MOTION_DDOT":0},{"OBJECT_NAME":"STARLINK-30898","OBJECT_ID":"2023-178P","EPOCH":"2026-03-09T05:11:01.515264","MEAN_MOTION":15.30219296,"ECCENTRICITY":9.359e-5,"INCLINATION":53.1618,"RA_OF_ASC_NODE":3.5166,"ARG_OF_PERICENTER":101.4769,"MEAN_ANOMALY":258.6337,"EPHEMERIS_TYPE":0,"CLASSIFICATION_TYPE":"U","NORAD_CAT_ID":58387,"ELEMENT_SET_NO":999,"REV_AT_EPOCH":12981,"BSTAR":0.00012138972,"MEAN_MOTION_DOT":3.24e-5,"MEAN_MOTION_DDOT":0}]
